STARLINK-4336           
1 53051U 22077J   26064.96953482  .00000327  00000+0  29964-4 0  9991
2 53051  97.6024 246.5649 0003176  63.4010 296.7540 15.01260355200352
STARLINK-4341           
1 53052U 22077K   26064.96582638  .00000981  00000+0  80885-4 0  9998
2 53052  97.6019 246.5779 0002653  38.5343 321.6071 15.01258862200359
STARLINK-4337           
1 53053U 22077L   26064.95842040  .00000147  00000+0  15958-4 0  9997
2 53053  97.6016 246.5689 0001505  79.9743 280.1651 15.01259226200353
STARLINK-4339           
1 53054U 22077M   26064.98239997  .00001487  00000+0  10723-3 0  9994
2 53054  97.6031 247.6157 0001401  86.0052 274.1335 15.05649651200429
STARLINK-4338           
1 53055U 22077N   26064.94640068  .00001054  00000+0  77220-4 0  9992
2 53055  97.6024 247.4923 0001430  75.1504 284.9881 15.05659024200413
STARLINK-4314           
1 53056U 22077P   26064.93257267  .00000634  00000+0  48131-4 0  9999
2 53056  97.6021 247.5201 0001568  87.5662 272.5744 15.05648064200418
STARLINK-4252           
1 53057U 22077Q   26064.95751344 -.00002289  00000+0 -15462-3 0  9997
2 53057  97.5984 247.6196 0002122  94.2075 265.9394 15.05622559200429
STARLINK-4317           
1 53058U 22077R   26064.97163793 -.00010374  00000+0 -80331-3 0  9996
2 53058  97.6032 246.5521 0002941  59.0892 301.0621 15.01305655200369
STARLINK-4320           
1 53059U 22077S   26064.48284030 -.00000814  00000+0 -58873-4 0  9996
2 53059  97.6010 246.0959 0000475 113.1246 247.0029 15.01260813200289
STARLINK-4305           
1 53060U 22077T   26064.95472131  .00001218  00000+0  99326-4 0  9996
2 53060  97.6019 246.5651 0001367 101.9256 258.2122 15.01270134200354
STARLINK-4308           
1 53061U 22077U   26064.94730975 -.00001306  00000+0 -97154-4 0  9996
2 53061  97.6002 246.5446 0000606 149.1076 211.0185 15.01262612200356
STARLINK-4311           
1 53062U 22077V   26064.48444336 -.00000012  00000+0  35962-5 0  9991
2 53062  97.6015 246.1041 0000919 171.3974 188.7267 15.01262168200288
STARLINK-4307           
1 53063U 22077W   26064.97408801  .00000573  00000+0  43930-4 0  9997
2 53063  97.6031 247.5084 0001250  85.3517 274.7852 15.05647977 72007
STARLINK-4313           
1 53064U 22077X   26064.51995189 -.00005218  00000+0 -35743-3 0  9993
2 53064  97.6026 247.1191 0001497  91.6453 268.4945 15.05676954200350
STARLINK-4312           
1 53065U 22077Y   26064.94360410  .00000432  00000+0  38137-4 0  9996
2 53065  97.6025 246.5413 0001724 202.1288 157.9862 15.01260615200357
STARLINK-4309           
1 53066U 22077Z   26064.47542934  .00010805  00000+0  84420-3 0  9998
2 53066  97.6012 246.0885 0001985 257.9640 102.1361 15.01273416200282
