[{"OBJECT_NAME":"STARLINK-4336","OBJECT_ID":"2022-077J","EPOCH":"2026-03-05T23:16:07.808448","MEAN_MOTION":15.01260355,"ECCENTRICITY":0.0003176,"INCLINATION":97.6024,"RA_OF_ASC_NODE":246.5649,"ARG_OF_PERICENTER":63.401,"MEAN_ANOMALY":296.754,"EPHEMERIS_TYPE":0,"CLASSIFICATION_TYPE":"U","NORAD_CAT_ID":53051,"ELEMENT_SET_NO":999,"REV_AT_EPOCH":20035,"BSTAR":2.9963672e-5,"MEAN_MOTION_DOT":3.27e-6,"MEAN_MOTION_DDOT":0},{"OBJECT_NAME":"STARLINK-4341","OBJECT_ID":"2022-077K","EPOCH":"2026-03-05T23:10:47.399232","MEAN_MOTION":15.01258862,"ECCENTRICITY":0.00026534,"INCLINATION":97.6019,"RA_OF_ASC_NODE":246.5779,"ARG_OF_PERICENTER":38.5343,"MEAN_ANOMALY":321.6071,"EPHEMERIS_TYPE":0,"CLASSIFICATION_TYPE":"U","NORAD_CAT_ID":53052,"ELEMENT_SET_NO":999,"REV_AT_EPOCH":20035,"BSTAR":8.088502e-5,"MEAN_MOTION_DOT":9.81e-6,"MEAN_MOTION_DDOT":0},{"OBJECT_NAME":"STARLINK-4337","OBJECT_ID":"2022-077L","EPOCH":"2026-03-05T23:00:07.522560","MEAN_MOTION":15.01259226,"ECCENTRICITY":0.00015055,"INCLINATION":97.6016,"RA_OF_ASC_NODE":246.5689,"ARG_OF_PERICENTER":79.9743,"MEAN_ANOMALY":280.1651,"EPHEMERIS_TYPE":0,"CLASSIFICATION_TYPE":"U","NORAD_CAT_ID":53053,"ELEMENT_SET_NO":999,"REV_AT_EPOCH":20035,"BSTAR":1.5957856e-5,"MEAN_MOTION_DOT":1.47e-6,"MEAN_MOTION_DDOT":0},{"OBJECT_NAME":"STARLINK-4339","OBJECT_ID":"2022-077M","EPOCH":"2026-03-05T23:34:39.357408","MEAN_MOTION":15.05649651,"ECCENTRICITY":0.00014011,"INCLINATION":97.6031,"RA_OF_ASC_NODE":247.6157,"ARG_OF_PERICENTER":86.0052,"MEAN_ANOMALY":274.1335,"EPHEMERIS_TYPE":0,"CLASSIFICATION_TYPE":"U","NORAD_CAT_ID":53054,"ELEMENT_SET_NO":999,"REV_AT_EPOCH":20042,"BSTAR":0.00010723018,"MEAN_MOTION_DOT":1.487e-5,"MEAN_MOTION_DDOT":0},{"OBJECT_NAME":"STARLINK-4338","OBJECT_ID":"2022-077N","EPOCH":"2026-03-05T22:42:49.018752","MEAN_MOTION":15.05659024,"ECCENTRICITY":0.00014308,"INCLINATION":97.6024,"RA_OF_ASC_NODE":247.4923,"ARG_OF_PERICENTER":75.1504,"MEAN_ANOMALY":284.9881,"EPHEMERIS_TYPE":0,"CLASSIFICATION_TYPE":"U","NORAD_CAT_ID":53055,"ELEMENT_SET_NO":999,"REV_AT_EPOCH":20041,"BSTAR":7.7219755e-5,"MEAN_MOTION_DOT":1.054e-5,"MEAN_MOTION_DDOT":0},{"OBJECT_NAME":"STARLINK-4314","OBJECT_ID":"2022-077P","EPOCH":"2026-03-05T22:22:54.278688","MEAN_MOTION":15.05648064,"ECCENTRICITY":0.00015687,"INCLINATION":97.6021,"RA_OF_ASC_NODE":247.5201,"ARG_OF_PERICENTER":87.5662,"MEAN_ANOMALY":272.5744,"EPHEMERIS_TYPE":0,"CLASSIFICATION_TYPE":"U","NORAD_CAT_ID":53056,"ELEMENT_SET_NO":999,"REV_AT_EPOCH":20041,"BSTAR":4.8130721e-5,"MEAN_MOTION_DOT":6.34e-6,"MEAN_MOTION_DDOT":0},{"OBJECT_NAME":"STARLINK-4252","OBJECT_ID":"2022-077Q","EPOCH":"2026-03-05T22:58:49.161216","MEAN_MOTION":15.05622559,"ECCENTRICITY":0.00021221,"INCLINATION":97.5984,"RA_OF_ASC_NODE":247.6196,"ARG_OF_PERICENTER":94.2075,"MEAN_ANOMALY":265.9394,"EPHEMERIS_TYPE":0,"CLASSIFICATION_TYPE":"U","NORAD_CAT_ID":53057,"ELEMENT_SET_NO":999,"REV_AT_EPOCH":20042,"BSTAR":-0.00015461506,"MEAN_MOTION_DOT":-2.289e-5,"MEAN_MOTION_DDOT":0},{"OBJECT_NAME":"STARLINK-4317","OBJECT_ID":"2022-077R","EPOCH":"2026-03-05T23:19:09.517152","MEAN_MOTION":15.01305655,"ECCENTRICITY":0.00029413,"INCLINATION":97.6032,"RA_OF_ASC_NODE":246.5521,"ARG_OF_PERICENTER":59.0892,"MEAN_ANOMALY":301.0621,"EPHEMERIS_TYPE":0,"CLASSIFICATION_TYPE":"U","NORAD_CAT_ID":53058,"ELEMENT_SET_NO":999,"REV_AT_EPOCH":20036,"BSTAR":-0.00080331212,"MEAN_MOTION_DOT":-0.00010374,"MEAN_MOTION_DDOT":0},{"OBJECT_NAME":"STARLINK-4320","OBJECT_ID":"2022-077S","EPOCH":"2026-03-05T11:35:17.401920","MEAN_MOTION":15.01260813,"ECCENTRICITY":4.75e-5,"INCLINATION":97.601,"RA_OF_ASC_NODE":246.0959,"ARG_OF_PERICENTER":113.1246,"MEAN_ANOMALY":247.0029,"EPHEMERIS_TYPE":0,"CLASSIFICATION_TYPE":"U","NORAD_CAT_ID":53059,"ELEMENT_SET_NO":999,"REV_AT_EPOCH":20028,"BSTAR":-5.8873e-5,"MEAN_MOTION_DOT":-8.14e-6,"MEAN_MOTION_DDOT":0},{"OBJECT_NAME":"STARLINK-4305","OBJECT_ID":"2022-077T","EPOCH":"2026-03-05T22:54:47.921184","MEAN_MOTION":15.01270134,"ECCENTRICITY":0.00013675,"INCLINATION":97.6019,"RA_OF_ASC_NODE":246.5651,"ARG_OF_PERICENTER":101.9256,"MEAN_ANOMALY":258.2122,"EPHEMERIS_TYPE":0,"CLASSIFICATION_TYPE":"U","NORAD_CAT_ID":53060,"ELEMENT_SET_NO":999,"REV_AT_EPOCH":20035,"BSTAR":9.9326165e-5,"MEAN_MOTION_DOT":1.218e-5,"MEAN_MOTION_DDOT":0},{"OBJECT_NAME":"STARLINK-4308","OBJECT_ID":"2022-077U","EPOCH":"2026-03-05T22:44:07.562400","MEAN_MOTION":15.01262612,"ECCENTRICITY":6.06e-5,"INCLINATION":97.6002,"RA_OF_ASC_NODE":246.5446,"ARG_OF_PERICENTER":149.1076,"MEAN_ANOMALY":211.0185,"EPHEMERIS_TYPE":0,"CLASSIFICATION_TYPE":"U","NORAD_CAT_ID":53061,"ELEMENT_SET_NO":999,"REV_AT_EPOCH":20035,"BSTAR":-9.7153939e-5,"MEAN_MOTION_DOT":-1.306e-5,"MEAN_MOTION_DDOT":0},{"OBJECT_NAME":"STARLINK-4311","OBJECT_ID":"2022-077V","EPOCH":"2026-03-05T11:37:35.906304","MEAN_MOTION":15.01262168,"ECCENTRICITY":9.19e-5,"INCLINATION":97.6015,"RA_OF_ASC_NODE":246.1041,"ARG_OF_PERICENTER":171.3974,"MEAN_ANOMALY":188.7267,"EPHEMERIS_TYPE":0,"CLASSIFICATION_TYPE":"U","NORAD_CAT_ID":53062,"ELEMENT_SET_NO":999,"REV_AT_EPOCH":20028,"BSTAR":3.5962e-6,"MEAN_MOTION_DOT":-1.2e-7,"MEAN_MOTION_DDOT":0},{"OBJECT_NAME":"STARLINK-4307","OBJECT_ID":"2022-077W","EPOCH":"2026-03-05T23:22:41.204064","MEAN_MOTION":15.05647977,"ECCENTRICITY":0.00012503,"INCLINATION":97.6031,"RA_OF_ASC_NODE":247.5084,"ARG_OF_PERICENTER":85.3517,"MEAN_ANOMALY":274.7852,"EPHEMERIS_TYPE":0,"CLASSIFICATION_TYPE":"U","NORAD_CAT_ID":53063,"ELEMENT_SET_NO":999,"REV_AT_EPOCH":7200,"BSTAR":4.3929752e-5,"MEAN_MOTION_DOT":5.73e-6,"MEAN_MOTION_DDOT":0},{"OBJECT_NAME":"STARLINK-4313","OBJECT_ID":"2022-077X","EPOCH":"2026-03-05T12:28:43.843296","MEAN_MOTION":15.05676954,"ECCENTRICITY":0.0001497,"INCLINATION":97.6026,"RA_OF_ASC_NODE":247.1191,"ARG_OF_PERICENTER":91.6453,"MEAN_ANOMALY":268.4945,"EPHEMERIS_TYPE":0,"CLASSIFICATION_TYPE":"U","NORAD_CAT_ID":53064,"ELEMENT_SET_NO":999,"REV_AT_EPOCH":20035,"BSTAR":-0.00035743,"MEAN_MOTION_DOT":-5.218e-5,"MEAN_MOTION_DDOT":0},{"OBJECT_NAME":"STARLINK-4312","OBJECT_ID":"2022-077Y","EPOCH":"2026-03-05T22:38:47.394240","MEAN_MOTION":15.01260615,"ECCENTRICITY":0.00017249,"INCLINATION":97.6025,"RA_OF_ASC_NODE":246.5413,"ARG_OF_PERICENTER":202.1288,"MEAN_ANOMALY":157.9862,"EPHEMERIS_TYPE":0,"CLASSIFICATION_TYPE":"U","NORAD_CAT_ID":53065,"ELEMENT_SET_NO":999,"REV_AT_EPOCH":20035,"BSTAR":3.8137045e-5,"MEAN_MOTION_DOT":4.32e-6,"MEAN_MOTION_DDOT":0},{"OBJECT_NAME":"STARLINK-4309","OBJECT_ID":"2022-077Z","EPOCH":"2026-03-05T11:24:37.094976","MEAN_MOTION":15.01273416,"ECCENTRICITY":0.0001985,"INCLINATION":97.6012,"RA_OF_ASC_NODE":246.0885,"ARG_OF_PERICENTER":257.964,"MEAN_ANOMALY":102.1361,"EPHEMERIS_TYPE":0,"CLASSIFICATION_TYPE":"U","NORAD_CAT_ID":53066,"ELEMENT_SET_NO":999,"REV_AT_EPOCH":20028,"BSTAR":0.0008442,"MEAN_MOTION_DOT":0.00010805,"MEAN_MOTION_DDOT":0}]
